IRIDIUM 166             
1 43570U 18061B   25300.33794405  .00000140  00000+0  43085-4 0  9998
2 43570  86.3988 154.0892 0001834  87.0893 273.0513 14.34218395380027
IRIDIUM 158             
1 43571U 18061C   25300.30623333  .00000348  00000+0  11721-3 0  9998
2 43571  86.3988 154.1125 0002214  79.7053 280.4392 14.34214317379987
IRIDIUM 165             
1 43572U 18061D   25300.54090804 -.00000013  00000+0 -11630-4 0  9997
2 43572  86.3993 154.0559 0001864  88.2500 271.8909 14.34217384380040
IRIDIUM 155             
1 43573U 18061E   25300.29354649  .00000160  00000+0  50036-4 0  9994
2 43573  86.3985 154.0401 0001987  79.7896 280.3524 14.34218469379970
IRIDIUM 154             
1 43574U 18061F   25300.55359337  .00000338  00000+0  11360-3 0  9996
2 43574  86.3991 154.0536 0002064  86.3417 273.8015 14.34218687380063
IRIDIUM 163             
1 43575U 18061G   25300.32525941  .00000350  00000+0  11779-3 0  9996
2 43575  86.3990 154.0718 0002242  83.8608 276.2843 14.34223755380009
IRIDIUM 156             
1 43576U 18061H   25300.29988866  .00000136  00000+0  41580-4 0  9998
2 43576  86.3990 154.0893 0001877  79.4867 280.6540 14.34218356379995
IRIDIUM 164             
1 43577U 18061J   25300.35063009  .00000072  00000+0  18757-4 0  9998
2 43577  86.3990 154.1048 0001863  89.5864 270.5546 14.34217898380045
